NORAD_CAT_ID,OBJECT_NAME,OBJECT_TYPE,EPOCH,MEAN_MOTION,ECCENTRICITY,INCLINATION,RA_OF_ASC_NODE,ARG_OF_PERICENTER,MEAN_ANOMALY,BSTAR,MEAN_MOTION_DOT,MEAN_MOTION_DDOT,TLE_LINE0,TLE_LINE1,TLE_LINE2,SEMIMAJOR_AXIS,PERIOD,APOGEE,PERIGEE,DECAYED
53558.0,STARLINK-4494,PAYLOAD,2024-05-11 10:01:27,15.08891944,0.0001628,53.2155,174.3483,101.0053,259.1122,0.0011195,0.00017599,0.0,0 STARLINK-4494,1 53558U 22101AH  24132.41767425  .00017599  00000-0  11195-2 0  9990,2 53558  53.2155 174.3483 0001628 101.0053 259.1122 15.08891944 95641,6917.722,95.434,540.713,538.46,0.0
53558.0,STARLINK-4494,PAYLOAD,2024-05-11 19:33:45,15.08859482,0.0002011,53.2146,172.5593,88.1126,272.0096,0.00026897,3.997e-05,0.0,0 STARLINK-4494,1 53558U 22101AH  24132.81511357  .00003997  00000-0  26897-3 0  9998,2 53558  53.2146 172.5593 0002011  88.1126 272.0096 15.08859482 95708,6917.821,95.436,541.077,538.295,0.0
53558.0,STARLINK-4494,PAYLOAD,2024-05-12 11:27:40,15.08759567,0.0001334,53.215,169.588,100.4084,259.7058,-0.0017195,-0.00027489,0.0,0 STARLINK-4494,1 53558U 22101AH  24133.47755284 -.00027489  00000-0 -17195-2 0  9994,2 53558  53.2150 169.5880 0001334 100.4084 259.7058 15.08759567 95800,6918.126,95.443,540.914,539.068,0.0
53558.0,STARLINK-4494,PAYLOAD,2024-05-12 19:24:35,15.08810191,0.0001518,53.2151,168.1001,181.1022,178.9967,-0.00029884,-5.037e-05,0.0,0 STARLINK-4494,1 53558U 22101AH  24133.80873909 -.00005037  00000-0 -29884-3 0  9990,2 53558  53.2151 168.1001 0001518 181.1022 178.9967 15.08810191 95850,6917.972,95.439,540.887,538.786,0.0
53558.0,STARLINK-4494,PAYLOAD,2024-05-13 11:18:25,15.08840605,0.0001524,53.2151,165.1271,104.9089,255.2072,0.0001003,1.309e-05,0.0,0 STARLINK-4494,1 53558U 22101AH  24134.47113350  .00001309  00000-0  10030-3 0  9990,2 53558  53.2151 165.1271 0001524 104.9089 255.2072 15.08840605 95959,6917.879,95.438,540.798,538.689,0.0
53558.0,STARLINK-4494,PAYLOAD,2024-05-13 19:15:21,15.08841288,0.0001607,53.2156,163.639,101.886,258.2313,0.00021905,3.2e-05,0.0,0 STARLINK-4494,1 53558U 22101AH  24134.80233522  .00003200  00000-0  21905-3 0  9996,2 53558  53.2156 163.6390 0001607 101.8860 258.2313 15.08841288 96662,6917.876,95.437,540.853,538.63,0.0
53558.0,STARLINK-4494,PAYLOAD,2024-05-14 01:36:54,15.08837117,0.0001486,53.2156,162.4494,109.7758,250.3394,0.0005374,8.274e-05,0.0,0 STARLINK-4494,1 53558U 22101AH  24135.06729921  .00008274  00000-0  53740-3 0  9996,2 53558  53.2156 162.4494 0001486 109.7758 250.3394 15.08837117 96042,6917.889,95.438,540.782,538.726,0.0
53558.0,STARLINK-4494,PAYLOAD,2024-05-14 07:58:27,15.08826111,0.0001918,53.2173,161.2593,109.2617,250.8582,0.00038957,5.915e-05,0.0,0 STARLINK-4494,1 53558U 22101AH  24135.33226827  .00005915  00000-0  38957-3 0  9995,2 53558  53.2173 161.2593 0001918 109.2617 250.8582 15.08826111 96087,6917.923,95.438,541.115,538.461,0.0
53558.0,STARLINK-4494,PAYLOAD,2024-05-14 19:06:10,15.08826184,0.0001723,53.2162,159.1783,102.8255,257.293,0.00052105,8.011e-05,0.0,0 STARLINK-4494,1 53558U 22101AH  24135.79595301  .00008011  00000-0  52105-3 0  9992,2 53558  53.2162 159.1783 0001723 102.8255 257.2930 15.08826184 96812,6917.923,95.438,540.98,538.596,0.0
53558.0,STARLINK-4494,PAYLOAD,2024-05-15 07:49:13,15.08857162,0.00018,53.2162,156.7987,111.0015,249.117,-0.0001457,-2.607e-05,0.0,0 STARLINK-4494,1 53558U 22101AH  24136.32585255 -.00002607  00000-0 -14570-3 0  9990,2 53558  53.2162 156.7987 0001800 111.0015 249.1170 15.08857162 96235,6917.828,95.436,540.938,538.448,0.0
53558.0,STARLINK-4494,PAYLOAD,2024-05-16 04:29:15,15.0884525,0.000175,53.2153,152.933,108.1778,251.9404,0.000279,4.156e-05,0.0,0 STARLINK-4494,1 53558U 22101AH  24137.18697924  .00004156  00000-0  27900-3 0  9992,2 53558  53.2153 152.9330 0001750 108.1778 251.9404 15.08845250 96362,6917.864,95.437,540.94,538.519,0.0
53558.0,STARLINK-4494,PAYLOAD,2024-05-16 07:40:01,15.088457,0.0001712,53.2152,152.3395,105.0386,255.0796,0.00027654,4.117e-05,0.0,0 STARLINK-4494,1 53558U 22101AH  24137.31945942  .00004117  00000-0  27654-3 0  9996,2 53558  53.2152 152.3395 0001712 105.0386 255.0796 15.08845700 97040,6917.863,95.437,540.912,538.544,0.0
53558.0,STARLINK-4494,PAYLOAD,2024-05-17 04:20:02,15.08834591,0.0001833,53.2158,148.4728,105.1076,255.0119,-9.0457e-05,-1.727e-05,0.0,0 STARLINK-4494,1 53558U 22101AH  24138.18058293 -.00001727  00000-0 -90457-4 0  9994,2 53558  53.2158 148.4728 0001833 105.1076 255.0119 15.08834591 96519,6917.897,95.438,541.03,538.494,0.0
53558.0,STARLINK-4494,PAYLOAD,2024-05-17 10:41:35,15.08831924,0.0001699,53.216,147.285,105.084,255.034,-6.6624e-05,-1.348e-05,0.0,0 STARLINK-4494,1 53558U 22101AH  24138.44555002 -.00001348  00000-0 -66624-4 0  9991,2 53558  53.2160 147.2850 0001699 105.0840 255.0340 15.08831924 97214,6917.905,95.438,540.945,538.595,0.0
53558.0,STARLINK-4494,PAYLOAD,2024-05-17 17:03:08,15.08833214,0.0001691,53.2162,146.096,104.7015,255.4165,-5.6436e-05,-1.186e-05,0.0,0 STARLINK-4494,1 53558U 22101AH  24138.71050961 -.00001186  00000-0 -56436-4 0  9995,2 53558  53.2162 146.0960 0001691 104.7015 255.4165 15.08833214 97254,6917.901,95.438,540.936,538.596,0.0
53558.0,STARLINK-4494,PAYLOAD,2024-05-18 07:21:35,15.08842524,0.0001579,53.2156,143.4195,101.3322,258.7848,5.3123e-05,5.58e-06,0.0,0 STARLINK-4494,1 53558U 22101AH  24139.30666140  .00000558  00000-0  53123-4 0  9993,2 53558  53.2156 143.4195 0001579 101.3322 258.7848 15.08842524 96681,6917.873,95.437,540.83,538.645,0.0
53558.0,STARLINK-4494,PAYLOAD,2024-05-18 16:53:54,15.08840862,0.0001579,53.2161,141.6348,97.4368,262.6804,0.00010038,1.31e-05,0.0,0 STARLINK-4494,1 53558U 22101AH  24139.70410103  .00001310  00000-0  10038-3 0  9997,2 53558  53.2161 141.6348 0001579  97.4368 262.6804 15.08840862 97402,6917.878,95.438,540.835,538.65,0.0
53558.0,STARLINK-4494,PAYLOAD,2024-05-19 04:01:36,15.08834325,0.0001616,53.2165,139.5532,96.0209,264.0968,0.00012662,1.727e-05,0.0,0 STARLINK-4494,1 53558U 22101AH  24140.16778555  .00001727  00000-0  12662-3 0  9994,2 53558  53.2165 139.5532 0001616  96.0209 264.0968 15.08834325 96816,6917.898,95.438,540.881,538.645,0.0
53558.0,STARLINK-4494,PAYLOAD,2024-05-19 05:36:59,15.08835248,0.000162,53.2165,139.2559,96.0199,264.0977,0.00013432,1.85e-05,0.0,0 STARLINK-4494,1 53558U 22101AH  24140.23402515  .00001850  00000-0  13432-3 0  9995,2 53558  53.2165 139.2559 0001620  96.0199 264.0977 15.08835248 97484,6917.895,95.438,540.881,538.639,0.0
53558.0,STARLINK-4494,PAYLOAD,2024-05-20 08:38:33,15.08841602,0.0001623,53.2169,134.2004,93.7179,266.3998,2.0681e-05,4.1e-07,0.0,0 STARLINK-4494,1 53558U 22101AH  24141.36010620  .00000041  00000-0  20681-4 0  9998,2 53558  53.2169 134.2004 0001623  93.7179 266.3998 15.08841602 96997,6917.875,95.437,540.863,538.618,0.0
53558.0,STARLINK-4494,PAYLOAD,2024-05-21 06:53:56,15.08841902,0.0001594,53.2169,130.037,89.5319,270.5856,5.4512e-05,5.8e-06,0.0,0 STARLINK-4494,1 53558U 22101AH  24142.28746362  .00000580  00000-0  54512-4 0  9997,2 53558  53.2169 130.0370 0001594  89.5319 270.5856 15.08841902 97795,6917.875,95.437,540.842,538.637,0.0
53558.0,STARLINK-4494,PAYLOAD,2024-05-21 22:47:48,15.08836496,0.0001646,53.2174,127.0641,86.7449,273.3731,2.3216e-05,8.1e-07,0.0,0 STARLINK-4494,1 53558U 22101AH  24142.94986843  .00000081  00000-0  23216-4 0  9993,2 53558  53.2174 127.0641 0001646  86.7449 273.3731 15.08836496 97895,6917.891,95.438,540.895,538.617,0.0
53558.0,STARLINK-4494,PAYLOAD,2024-05-22 05:09:21,15.08836335,0.0001645,53.2174,125.8746,86.8554,273.2626,1.8351e-05,4e-08,0.0,0 STARLINK-4494,1 53558U 22101AH  24143.21482924  .00000004  00000-0  18351-4 0  9994,2 53558  53.2174 125.8746 0001645  86.8554 273.2626 15.08836335 97270,6917.892,95.438,540.895,538.619,0.0
53558.0,STARLINK-4494,PAYLOAD,2024-05-23 05:00:06,15.08861347,0.0001682,53.2176,121.4152,89.6244,270.4941,0.00020976,3.054e-05,0.0,0 STARLINK-4494,1 53558U 22101AH  24144.20840481  .00003054  00000-0  20976-3 0  9993,2 53558  53.2176 121.4152 0001682  89.6244 270.4941 15.08861347 97420,6917.815,95.436,540.844,538.517,0.0
53558.0,STARLINK-4494,PAYLOAD,2024-05-24 03:15:31,15.08840781,0.0001556,53.2186,117.2473,88.0802,272.0368,-2.8358e-05,-7.39e-06,0.0,0 STARLINK-4494,1 53558U 22101AH  24145.13578229 -.00000739  00000-0 -28358-4 0  9996,2 53558  53.2186 117.2473 0001556  88.0802 272.0368 15.08840781 97568,6917.878,95.438,540.819,538.667,0.0
53558.0,STARLINK-4494,PAYLOAD,2024-05-24 22:20:10,15.08825141,0.000171,53.2167,113.678,107.1737,252.9443,-5.0197e-05,-1.087e-05,0.0,0 STARLINK-4494,1 53558U 22101AH  24145.93067227 -.00001087  00000-0 -50197-4 0  9998,2 53558  53.2167 113.6780 0001710 107.1737 252.9443 15.08825141 98341,6917.926,95.438,540.974,538.608,0.0
53558.0,STARLINK-4494,PAYLOAD,2024-05-25 04:41:42,15.08842065,0.0001556,53.2175,112.49,101.0475,259.0692,-0.00019988,-3.468e-05,0.0,0 STARLINK-4494,1 53558U 22101AH  24146.19562940 -.00003468  00000-0 -19988-3 0  9996,2 53558  53.2175 112.4900 0001556 101.0475 259.0692 15.08842065 97720,6917.874,95.437,540.815,538.663,0.0
53558.0,STARLINK-4494,PAYLOAD,2024-05-25 14:14:01,15.08818525,0.0001566,53.2181,110.7079,103.1002,257.0165,0.00015234,2.136e-05,0.0,0 STARLINK-4494,1 53558U 22101AH  24146.59307506  .00002136  00000-0  15234-3 0  9994,2 53558  53.2181 110.7079 0001566 103.1002 257.0165 15.08818525 98442,6917.946,95.439,540.894,538.728,0.0
53558.0,STARLINK-4494,PAYLOAD,2024-05-26 04:32:29,15.08833301,0.0001498,53.2177,108.0336,97.176,262.9403,0.00011565,1.553e-05,0.0,0 STARLINK-4494,1 53558U 22101AH  24147.18922893  .00001553  00000-0  11565-3 0  9997,2 53558  53.2177 108.0336 0001498  97.1760 262.9403 15.08833301 97875,6917.901,95.438,540.802,538.73,0.0
53558.0,STARLINK-4494,PAYLOAD,2024-05-27 13:55:36,15.08795814,0.0004391,53.2175,101.7841,246.4569,113.5962,-0.00026962,-4.573e-05,0.0,0 STARLINK-4494,1 53558U 22101AH  24148.58028854 -.00004573  00000-0 -26962-3 0  9990,2 53558  53.2175 101.7841 0004391 246.4569 113.5962 15.08795814 98749,6918.015,95.44,542.918,536.843,0.0
